{"type": "FeatureCollection", "features": [{"type": "Feature", "properties": {"norad_id": 28890, "name": "BEIJING 1", "group": "dmc", "lat": 1.706788273098636, "lon": 114.57583145825407, "alt_km": 693.0679489602026, "timestamp": "2025-12-13T07:35:41.206996+00:00", "meta": {"OBJECT_NAME": "BEIJING 1", "OBJECT_ID": "2005-043A", "EPOCH": "2025-12-12T23:22:54.304896", "MEAN_MOTION": 14.6336707, "ECCENTRICITY": 0.0015329, "INCLINATION": 98.2652, "RA_OF_ASC_NODE": 114.4811, "ARG_OF_PERICENTER": 140.5017, "MEAN_ANOMALY": 219.7305, "EPHEMERIS_TYPE": 0, "CLASSIFICATION_TYPE": "U", "NORAD_CAT_ID": 28890, "ELEMENT_SET_NO": 999, "REV_AT_EPOCH": 7341, "BSTAR": 0.00015970812, "MEAN_MOTION_DOT": 7.78e-06, "MEAN_MOTION_DDOT": 0}, "tle": {"line1": "1 28890U 05043A   25346.97423964  .00000778  00000+0  15971-3 0  9990", "line2": "2 28890  98.2652 114.4811 0015329 140.5017 219.7305 14.63367070 73418"}}, "geometry": {"type": "Point", "coordinates": [114.57583145825407, 1.706788273098636]}}, {"type": "Feature", "properties": {"norad_id": 33320, "name": "HUANJING 1A (HJ-1A)", "group": "dmc", "lat": 69.51559511775717, "lon": -45.508781611713886, "alt_km": 600.8773590759674, "timestamp": "2025-12-13T07:35:41.207018+00:00", "meta": {"OBJECT_NAME": "HUANJING 1A (HJ-1A)", "OBJECT_ID": "2008-041A", "EPOCH": "2025-12-13T00:48:06.230880", "MEAN_MOTION": 14.83396277, "ECCENTRICITY": 0.0020083, "INCLINATION": 97.6543, "RA_OF_ASC_NODE": 335.3197, "ARG_OF_PERICENTER": 33.408, "MEAN_ANOMALY": 326.8397, "EPHEMERIS_TYPE": 0, "CLASSIFICATION_TYPE": "U", "NORAD_CAT_ID": 33320, "ELEMENT_SET_NO": 999, "REV_AT_EPOCH": 93080, "BSTAR": 0.00029939229, "MEAN_MOTION_DOT": 2.414e-05, "MEAN_MOTION_DDOT": 0}, "tle": {"line1": "1 33320U 08041A   25347.03340545  .00002414  00000+0  29939-3 0  9994", "line2": "2 33320  97.6543 335.3197 0020083  33.4080 326.8397 14.83396277930807"}}, "geometry": {"type": "Point", "coordinates": [-45.508781611713886, 69.51559511775717]}}, {"type": "Feature", "properties": {"norad_id": 33321, "name": "HUANJING 1B (HJ-1B)", "group": "dmc", "lat": -68.23690114935059, "lon": -1.0658240428568646, "alt_km": 649.0737673518615, "timestamp": "2025-12-13T07:35:41.207031+00:00", "meta": {"OBJECT_NAME": "HUANJING 1B (HJ-1B)", "OBJECT_ID": "2008-041B", "EPOCH": "2025-12-12T23:48:40.069152", "MEAN_MOTION": 14.82822548, "ECCENTRICITY": 0.00381205, "INCLINATION": 97.6403, "RA_OF_ASC_NODE": 338.9763, "ARG_OF_PERICENTER": 74.9069, "MEAN_ANOMALY": 285.6358, "EPHEMERIS_TYPE": 0, "CLASSIFICATION_TYPE": "U", "NORAD_CAT_ID": 33321, "ELEMENT_SET_NO": 999, "REV_AT_EPOCH": 93081, "BSTAR": 0.00027563316, "MEAN_MOTION_DOT": 2.207e-05, "MEAN_MOTION_DDOT": 0}, "tle": {"line1": "1 33321U 08041B   25346.99213043  .00002207  00000+0  27563-3 0  9992", "line2": "2 33321  97.6403 338.9763 0038120  74.9069 285.6358 14.82822548930813"}}, "geometry": {"type": "Point", "coordinates": [-1.0658240428568646, -68.23690114935059]}}, {"type": "Feature", "properties": {"norad_id": 33446, "name": "YAOGAN-4", "group": "dmc", "lat": -21.85769084879442, "lon": 94.20966701619625, "alt_km": 630.8956773478731, "timestamp": "2025-12-13T07:35:41.207041+00:00", "meta": {"OBJECT_NAME": "YAOGAN-4", "OBJECT_ID": "2008-061A", "EPOCH": "2025-12-12T19:20:52.548864", "MEAN_MOTION": 14.8268323, "ECCENTRICITY": 0.00135668, "INCLINATION": 97.918, "RA_OF_ASC_NODE": 276.9049, "ARG_OF_PERICENTER": 323.087, "MEAN_ANOMALY": 36.9408, "EPHEMERIS_TYPE": 0, "CLASSIFICATION_TYPE": "U", "NORAD_CAT_ID": 33446, "ELEMENT_SET_NO": 999, "REV_AT_EPOCH": 91804, "BSTAR": 0.00030747624, "MEAN_MOTION_DOT": 2.43e-05, "MEAN_MOTION_DDOT": 0}, "tle": {"line1": "1 33446U 08061A   25346.80616376  .00002430  00000+0  30748-3 0  9995", "line2": "2 33446  97.9180 276.9049 0013566 323.0870  36.9408 14.82683230918046"}}, "geometry": {"type": "Point", "coordinates": [94.20966701619625, -21.85769084879442]}}, {"type": "Feature", "properties": {"norad_id": 35681, "name": "DEIMOS-1", "group": "dmc", "lat": -43.72976316089689, "lon": 155.3436126707347, "alt_km": 653.0008040108596, "timestamp": "2025-12-13T07:35:41.207051+00:00", "meta": {"OBJECT_NAME": "DEIMOS-1", "OBJECT_ID": "2009-041A", "EPOCH": "2025-12-12T23:39:15.020064", "MEAN_MOTION": 14.74953676, "ECCENTRICITY": 0.00027176, "INCLINATION": 97.7149, "RA_OF_ASC_NODE": 147.5772, "ARG_OF_PERICENTER": 78.7966, "MEAN_ANOMALY": 281.355, "EPHEMERIS_TYPE": 0, "CLASSIFICATION_TYPE": "U", "NORAD_CAT_ID": 35681, "ELEMENT_SET_NO": 999, "REV_AT_EPOCH": 87943, "BSTAR": 0.00018224792, "MEAN_MOTION_DOT": 1.177e-05, "MEAN_MOTION_DDOT": 0}, "tle": {"line1": "1 35681U 09041A   25346.98559051  .00001177  00000+0  18225-3 0  9995", "line2": "2 35681  97.7149 147.5772 0002717  78.7966 281.3550 14.74953676879432"}}, "geometry": {"type": "Point", "coordinates": [155.3436126707347, -43.72976316089689]}}, {"type": "Feature", "properties": {"norad_id": 35683, "name": "UK-DMC 2", "group": "dmc", "lat": -27.498222165793525, "lon": 126.3237143975352, "alt_km": 649.5149347146953, "timestamp": "2025-12-13T07:35:41.207061+00:00", "meta": {"OBJECT_NAME": "UK-DMC 2", "OBJECT_ID": "2009-041C", "EPOCH": "2025-12-12T23:34:59.951712", "MEAN_MOTION": 14.75622463, "ECCENTRICITY": 0.00014452, "INCLINATION": 97.8559, "RA_OF_ASC_NODE": 121.8781, "ARG_OF_PERICENTER": 95.4025, "MEAN_ANOMALY": 264.735, "EPHEMERIS_TYPE": 0, "CLASSIFICATION_TYPE": "U", "NORAD_CAT_ID": 35683, "ELEMENT_SET_NO": 999, "REV_AT_EPOCH": 87910, "BSTAR": 0.00022249372, "MEAN_MOTION_DOT": 1.469e-05, "MEAN_MOTION_DDOT": 0}, "tle": {"line1": "1 35683U 09041C   25346.98263833  .00001469  00000+0  22249-3 0  9992", "line2": "2 35683  97.8559 121.8781 0001445  95.4025 264.7350 14.75622463879109"}}, "geometry": {"type": "Point", "coordinates": [126.3237143975352, -27.498222165793525]}}, {"type": "Feature", "properties": {"norad_id": 40715, "name": "DMC3-FM1", "group": "dmc", "lat": 41.18035933729152, "lon": -152.28151738738285, "alt_km": 608.4962509118022, "timestamp": "2025-12-13T07:35:41.207072+00:00", "meta": {"OBJECT_NAME": "DMC3-FM1", "OBJECT_ID": "2015-032A", "EPOCH": "2025-12-13T00:56:28.872384", "MEAN_MOTION": 14.85441171, "ECCENTRICITY": 0.00047, "INCLINATION": 97.6688, "RA_OF_ASC_NODE": 214.221, "ARG_OF_PERICENTER": 320.4648, "MEAN_ANOMALY": 39.6225, "EPHEMERIS_TYPE": 0, "CLASSIFICATION_TYPE": "U", "NORAD_CAT_ID": 40715, "ELEMENT_SET_NO": 999, "REV_AT_EPOCH": 56227, "BSTAR": 0.00015960033, "MEAN_MOTION_DOT": 1.324e-05, "MEAN_MOTION_DDOT": 0}, "tle": {"line1": "1 40715U 15032A   25347.03922306  .00001324  00000+0  15960-3 0  9997", "line2": "2 40715  97.6688 214.2210 0004700 320.4648  39.6225 14.85441171562278"}}, "geometry": {"type": "Point", "coordinates": [-152.28151738738285, 41.18035933729152]}}, {"type": "Feature", "properties": {"norad_id": 40716, "name": "DMC3-FM2", "group": "dmc", "lat": -76.30254249621301, "lon": -110.47653900722167, "alt_km": 616.8343144599958, "timestamp": "2025-12-13T07:35:41.207081+00:00", "meta": {"OBJECT_NAME": "DMC3-FM2", "OBJECT_ID": "2015-032B", "EPOCH": "2025-12-12T23:51:52.504416", "MEAN_MOTION": 14.85444175, "ECCENTRICITY": 0.00052589, "INCLINATION": 97.6746, "RA_OF_ASC_NODE": 215.6218, "ARG_OF_PERICENTER": 325.4004, "MEAN_ANOMALY": 34.6868, "EPHEMERIS_TYPE": 0, "CLASSIFICATION_TYPE": "U", "NORAD_CAT_ID": 40716, "ELEMENT_SET_NO": 999, "REV_AT_EPOCH": 56226, "BSTAR": 0.00023237137, "MEAN_MOTION_DOT": 1.952e-05, "MEAN_MOTION_DDOT": 0}, "tle": {"line1": "1 40716U 15032B   25346.99435769  .00001952  00000+0  23237-3 0  9997", "line2": "2 40716  97.6746 215.6218 0005258 325.4004  34.6868 14.85444175562261"}}, "geometry": {"type": "Point", "coordinates": [-110.47653900722167, -76.30254249621301]}}, {"type": "Feature", "properties": {"norad_id": 40717, "name": "DMC3-FM3", "group": "dmc", "lat": 13.901897704675415, "lon": 39.47975553695811, "alt_km": 616.3143058510514, "timestamp": "2025-12-13T07:35:41.207091+00:00", "meta": {"OBJECT_NAME": "DMC3-FM3", "OBJECT_ID": "2015-032C", "EPOCH": "2025-12-12T22:46:00.795648", "MEAN_MOTION": 14.85433791, "ECCENTRICITY": 0.00045896, "INCLINATION": 97.6802, "RA_OF_ASC_NODE": 217.2109, "ARG_OF_PERICENTER": 328.2633, "MEAN_ANOMALY": 31.8306, "EPHEMERIS_TYPE": 0, "CLASSIFICATION_TYPE": "U", "NORAD_CAT_ID": 40717, "ELEMENT_SET_NO": 999, "REV_AT_EPOCH": 56226, "BSTAR": 0.00020103169, "MEAN_MOTION_DOT": 1.681e-05, "MEAN_MOTION_DDOT": 0}, "tle": {"line1": "1 40717U 15032C   25346.94862032  .00001681  00000+0  20103-3 0  9998", "line2": "2 40717  97.6802 217.2109 0004589 328.2633  31.8306 14.85433791562265"}}, "geometry": {"type": "Point", "coordinates": [39.47975553695811, 13.901897704675415]}}]}